{"type": "FeatureCollection", "features": [{"type": "Feature", "properties": {"norad_id": 24876, "name": "GPS BIIR-2  (PRN 13)", "group": "gnss", "lat": 23.0284144692108, "lon": -90.69730219969814, "alt_km": 20198.639662031605, "timestamp": "2025-12-08T10:52:03.188264+00:00", "meta": {"OBJECT_NAME": "GPS BIIR-2  (PRN 13)", "OBJECT_ID": "1997-035A", "EPOCH": "2025-12-07T17:55:28.688448", "MEAN_MOTION": 2.00563551, "ECCENTRICITY": 0.00967233, "INCLINATION": 55.8929, "RA_OF_ASC_NODE": 106.0642, "ARG_OF_PERICENTER": 57.0121, "MEAN_ANOMALY": 303.8828, "EPHEMERIS_TYPE": 0, "CLASSIFICATION_TYPE": "U", "NORAD_CAT_ID": 24876, "ELEMENT_SET_NO": 999, "REV_AT_EPOCH": 20811, "BSTAR": 0, "MEAN_MOTION_DOT": 1.2e-07, "MEAN_MOTION_DDOT": 0}, "tle": {"line1": "1 24876U 97035A   25341.74685982  .00000012  00000+0  00000+0 0  9996", "line2": "2 24876  55.8929 106.0642 0096723  57.0121 303.8828  2.00563551208110"}}, "geometry": {"type": "Point", "coordinates": [-90.69730219969814, 23.0284144692108]}}, {"type": "Feature", "properties": {"norad_id": 26360, "name": "GPS BIIR-4  (PRN 20)", "group": "gnss", "lat": -46.63233321427864, "lon": -105.22599573468665, "alt_km": 20083.75838751643, "timestamp": "2025-12-08T10:52:03.188314+00:00", "meta": {"OBJECT_NAME": "GPS BIIR-4  (PRN 20)", "OBJECT_ID": "2000-025A", "EPOCH": "2025-12-07T20:28:59.861568", "MEAN_MOTION": 2.0056799, "ECCENTRICITY": 0.0038838, "INCLINATION": 55.0423, "RA_OF_ASC_NODE": 27.0356, "ARG_OF_PERICENTER": 241.5268, "MEAN_ANOMALY": 288.2176, "EPHEMERIS_TYPE": 0, "CLASSIFICATION_TYPE": "U", "NORAD_CAT_ID": 26360, "ELEMENT_SET_NO": 999, "REV_AT_EPOCH": 18743, "BSTAR": 0, "MEAN_MOTION_DOT": -8.5e-07, "MEAN_MOTION_DDOT": 0}, "tle": {"line1": "1 26360U 00025A   25341.85347062 -.00000085  00000+0  00000+0 0  9996", "line2": "2 26360  55.0423  27.0356 0038838 241.5268 288.2176  2.00567990187434"}}, "geometry": {"type": "Point", "coordinates": [-105.22599573468665, -46.63233321427864]}}, {"type": "Feature", "properties": {"norad_id": 26407, "name": "GPS BIIR-5  (PRN 22)", "group": "gnss", "lat": 54.282354256035596, "lon": -59.38947548326177, "alt_km": 20434.747167349604, "timestamp": "2025-12-08T10:52:03.188339+00:00", "meta": {"OBJECT_NAME": "GPS BIIR-5  (PRN 22)", "OBJECT_ID": "2000-040A", "EPOCH": "2025-12-07T20:23:29.531904", "MEAN_MOTION": 2.00567809, "ECCENTRICITY": 0.01262773, "INCLINATION": 54.892, "RA_OF_ASC_NODE": 222.7635, "ARG_OF_PERICENTER": 301.7172, "MEAN_ANOMALY": 64.8523, "EPHEMERIS_TYPE": 0, "CLASSIFICATION_TYPE": "U", "NORAD_CAT_ID": 26407, "ELEMENT_SET_NO": 999, "REV_AT_EPOCH": 18611, "BSTAR": 0, "MEAN_MOTION_DOT": 2.2e-07, "MEAN_MOTION_DDOT": 0}, "tle": {"line1": "1 26407U 00040A   25341.84964736  .00000022  00000+0  00000+0 0  9997", "line2": "2 26407  54.8920 222.7635 0126277 301.7172  64.8523  2.00567809186114"}}, "geometry": {"type": "Point", "coordinates": [-59.38947548326177, 54.282354256035596]}}, {"type": "Feature", "properties": {"norad_id": 27663, "name": "GPS BIIR-8  (PRN 16)", "group": "gnss", "lat": -30.47526623220055, "lon": 66.9624426540163, "alt_km": 20565.853970255008, "timestamp": "2025-12-08T10:52:03.188354+00:00", "meta": {"OBJECT_NAME": "GPS BIIR-8  (PRN 16)", "OBJECT_ID": "2003-005A", "EPOCH": "2025-12-07T16:01:06.566304", "MEAN_MOTION": 2.00571101, "ECCENTRICITY": 0.01472532, "INCLINATION": 54.9246, "RA_OF_ASC_NODE": 222.5801, "ARG_OF_PERICENTER": 51.7313, "MEAN_ANOMALY": 319.0971, "EPHEMERIS_TYPE": 0, "CLASSIFICATION_TYPE": "U", "NORAD_CAT_ID": 27663, "ELEMENT_SET_NO": 999, "REV_AT_EPOCH": 16747, "BSTAR": 0, "MEAN_MOTION_DOT": 2.5e-07, "MEAN_MOTION_DDOT": 0}, "tle": {"line1": "1 27663U 03005A   25341.66743711  .00000025  00000+0  00000+0 0  9997", "line2": "2 27663  54.9246 222.5801 0147253  51.7313 319.0971  2.00571101167470"}}, "geometry": {"type": "Point", "coordinates": [66.9624426540163, -30.47526623220055]}}, {"type": "Feature", "properties": {"norad_id": 28190, "name": "GPS BIIR-11 (PRN 19)", "group": "gnss", "lat": 13.231079613159805, "lon": -67.15148689163715, "alt_km": 20432.70921102698, "timestamp": "2025-12-08T10:52:03.188369+00:00", "meta": {"OBJECT_NAME": "GPS BIIR-11 (PRN 19)", "OBJECT_ID": "2004-009A", "EPOCH": "2025-12-07T01:08:17.943360", "MEAN_MOTION": 2.00560868, "ECCENTRICITY": 0.01082706, "INCLINATION": 54.9909, "RA_OF_ASC_NODE": 283.4484, "ARG_OF_PERICENTER": 167.5454, "MEAN_ANOMALY": 274.5396, "EPHEMERIS_TYPE": 0, "CLASSIFICATION_TYPE": "U", "NORAD_CAT_ID": 28190, "ELEMENT_SET_NO": 999, "REV_AT_EPOCH": 15909, "BSTAR": 0, "MEAN_MOTION_DOT": -4.1e-07, "MEAN_MOTION_DDOT": 0}, "tle": {"line1": "1 28190U 04009A   25341.04742990 -.00000041  00000+0  00000+0 0  9997", "line2": "2 28190  54.9909 283.4484 0108270 167.5454 274.5396  2.00560868159096"}}, "geometry": {"type": "Point", "coordinates": [-67.15148689163715, 13.231079613159805]}}, {"type": "Feature", "properties": {"norad_id": 28474, "name": "GPS BIIR-13 (PRN 02)", "group": "gnss", "lat": 53.56605348919129, "lon": 42.703771500599295, "alt_km": 20458.952469630578, "timestamp": "2025-12-08T10:52:03.188382+00:00", "meta": {"OBJECT_NAME": "GPS BIIR-13 (PRN 02)", "OBJECT_ID": "2004-045A", "EPOCH": "2025-12-07T20:16:35.351904", "MEAN_MOTION": 2.00569143, "ECCENTRICITY": 0.0170668, "INCLINATION": 55.2431, "RA_OF_ASC_NODE": 332.6027, "ARG_OF_PERICENTER": 309.0357, "MEAN_ANOMALY": 48.7901, "EPHEMERIS_TYPE": 0, "CLASSIFICATION_TYPE": "U", "NORAD_CAT_ID": 28474, "ELEMENT_SET_NO": 999, "REV_AT_EPOCH": 15458, "BSTAR": 0, "MEAN_MOTION_DOT": -8.2e-07, "MEAN_MOTION_DDOT": 0}, "tle": {"line1": "1 28474U 04045A   25341.84485361 -.00000082  00000+0  00000+0 0  9991", "line2": "2 28474  55.2431 332.6027 0170668 309.0357  48.7901  2.00569143154587"}}, "geometry": {"type": "Point", "coordinates": [42.703771500599295, 53.56605348919129]}}, {"type": "Feature", "properties": {"norad_id": 28874, "name": "GPS BIIRM-1 (PRN 17)", "group": "gnss", "lat": 29.57087452918929, "lon": -55.7823227898967, "alt_km": 20255.106189357706, "timestamp": "2025-12-08T10:52:03.188396+00:00", "meta": {"OBJECT_NAME": "GPS BIIRM-1 (PRN 17)", "OBJECT_ID": "2005-038A", "EPOCH": "2025-12-07T21:56:50.807616", "MEAN_MOTION": 2.00578604, "ECCENTRICITY": 0.01317949, "INCLINATION": 55.0363, "RA_OF_ASC_NODE": 280.8951, "ARG_OF_PERICENTER": 293.3685, "MEAN_ANOMALY": 73.445, "EPHEMERIS_TYPE": 0, "CLASSIFICATION_TYPE": "U", "NORAD_CAT_ID": 28874, "ELEMENT_SET_NO": 999, "REV_AT_EPOCH": 14800, "BSTAR": 0, "MEAN_MOTION_DOT": -4.2e-07, "MEAN_MOTION_DDOT": 0}, "tle": {"line1": "1 28874U 05038A   25341.91447694 -.00000042  00000+0  00000+0 0  9999", "line2": "2 28874  55.0363 280.8951 0131794 293.3685  73.4450  2.00578604148005"}}, "geometry": {"type": "Point", "coordinates": [-55.7823227898967, 29.57087452918929]}}, {"type": "Feature", "properties": {"norad_id": 28899, "name": "INMARSAT 4-F2 (SOUTHPAN/PRN 122)", "group": "gnss", "lat": -1.6190293931966073, "lon": 24.069125059731906, "alt_km": 35794.61750727421, "timestamp": "2025-12-08T10:52:03.188411+00:00", "meta": {"OBJECT_NAME": "INMARSAT 4-F2 (SOUTHPAN/PRN 122)", "OBJECT_ID": "2005-044A", "EPOCH": "2025-12-07T22:52:41.557728", "MEAN_MOTION": 1.00271207, "ECCENTRICITY": 0.00033346, "INCLINATION": 4.8463, "RA_OF_ASC_NODE": 43.6765, "ARG_OF_PERICENTER": 215.2806, "MEAN_ANOMALY": 304.6867, "EPHEMERIS_TYPE": 0, "CLASSIFICATION_TYPE": "U", "NORAD_CAT_ID": 28899, "ELEMENT_SET_NO": 999, "REV_AT_EPOCH": 7360, "BSTAR": 0, "MEAN_MOTION_DOT": -2.59e-06, "MEAN_MOTION_DDOT": 0}, "tle": {"line1": "1 28899U 05044A   25341.95325877 -.00000259  00000+0  00000+0 0  9995", "line2": "2 28899   4.8463  43.6765 0003334 215.2806 304.6867  1.00271207 73601"}}, "geometry": {"type": "Point", "coordinates": [24.069125059731906, -1.6190293931966073]}}, {"type": "Feature", "properties": {"norad_id": 29486, "name": "GPS BIIRM-2 (PRN 31)", "group": "gnss", "lat": -46.12316847168293, "lon": 111.4017291857944, "alt_km": 20301.43632142693, "timestamp": "2025-12-08T10:52:03.188425+00:00", "meta": {"OBJECT_NAME": "GPS BIIRM-2 (PRN 31)", "OBJECT_ID": "2006-042A", "EPOCH": "2025-12-07T13:22:14.545056", "MEAN_MOTION": 2.0055427, "ECCENTRICITY": 0.01073634, "INCLINATION": 54.6934, "RA_OF_ASC_NODE": 158.9464, "ARG_OF_PERICENTER": 51.8351, "MEAN_ANOMALY": 320.4932, "EPHEMERIS_TYPE": 0, "CLASSIFICATION_TYPE": "U", "NORAD_CAT_ID": 29486, "ELEMENT_SET_NO": 999, "REV_AT_EPOCH": 14055, "BSTAR": 0, "MEAN_MOTION_DOT": 5.8e-07, "MEAN_MOTION_DDOT": 0}, "tle": {"line1": "1 29486U 06042A   25341.55711279  .00000058  00000+0  00000+0 0  9994", "line2": "2 29486  54.6934 158.9464 0107363  51.8351 320.4932  2.00554270140555"}}, "geometry": {"type": "Point", "coordinates": [111.4017291857944, -46.12316847168293]}}, {"type": "Feature", "properties": {"norad_id": 29601, "name": "GPS BIIRM-3 (PRN 12)", "group": "gnss", "lat": -3.8293482620558206, "lon": -141.11116765085467, "alt_km": 20188.315080273274, "timestamp": "2025-12-08T10:52:03.188438+00:00", "meta": {"OBJECT_NAME": "GPS BIIRM-3 (PRN 12)", "OBJECT_ID": "2006-052A", "EPOCH": "2025-12-06T23:07:38.134848", "MEAN_MOTION": 2.0057305, "ECCENTRICITY": 0.00876251, "INCLINATION": 54.9717, "RA_OF_ASC_NODE": 221.6275, "ARG_OF_PERICENTER": 87.379, "MEAN_ANOMALY": 273.714, "EPHEMERIS_TYPE": 0, "CLASSIFICATION_TYPE": "U", "NORAD_CAT_ID": 29601, "ELEMENT_SET_NO": 999, "REV_AT_EPOCH": 13955, "BSTAR": 0, "MEAN_MOTION_DOT": 3.6e-07, "MEAN_MOTION_DDOT": 0}, "tle": {"line1": "1 29601U 06052A   25340.96363582  .00000036  00000+0  00000+0 0  9994", "line2": "2 29601  54.9717 221.6275 0087625  87.3790 273.7140  2.00573050139559"}}, "geometry": {"type": "Point", "coordinates": [-141.11116765085467, -3.8293482620558206]}}]}